[
  {
    "placeImage": "images/bh.jpeg",
    "placeName": "Beignets Haricots",
    "placeItems": ["8 Beignets","haricots","bouillit","lait","eau glace"],
    "prix": 1000
  },
  {
    "placeImage": "images/haricot.jpeg",
    "placeName": "Riz Haricots",
    "placeItems": ["riz","haricots","2 plantain","spaghetti","friture","eau glace"],
    "prix": 1500
  },
  {
    "placeImage": "images/koki.jpeg",
    "placeName": "Koki",
    "placeItems": ["koki","banane","plantains","patate","eau glace"],
    "prix": 3000
  },
  {
    "placeImage": "images/kondres.jpeg",
    "placeName": "Kondres",
    "placeItems": ["kondres","chevres","porc","boeux","eau glace"],
    "prix": 5000
  },
  {
    "placeImage": "images/taro.jpeg",
    "placeName": "taro",
    "placeItems": ["taro","canda","porc","boeux","eau glace"],
    "prix": 4500
  },
  {
    "placeImage": "images/eru.jpeg",
    "placeName": "eru",
    "placeItems": ["eru","canda","porc","tapioca","fufu","eau glace"],
    "prix": 3000
  },
  {
    "placeImage": "images/gombo.jpeg",
    "placeName": "gombo",
    "placeItems": ["gombo","canda","couscous","eau glace"],
    "prix": 2000
  },
  {
    "placeImage": "images/poulet.jpeg",
    "placeName": "poulet",
    "placeItems": ["rotir","bresser","frit","plantain","eau glace"],
    "prix": 2500
  },
  {
    "placeImage": "images/tilapia.jpeg",
    "placeName": "tilapia",
    "placeItems": ["tilapia","miondo","plantain frite","pomme frite","eau glace"],
    "prix": 2500
  },
  {
    "placeImage": "images/dolep.jpeg",
    "placeName": "Ndole plantain",
    "placeItems": ["ndole","plantain","porc","pattes de boeuf","friture","eau glace"],
    "prix": 2000
  }
]